[{"OBJECT_NAME":"IRIDE FM2","OBJECT_ID":"2025-276AG","EPOCH":"2026-03-09T22:42:46.282464","MEAN_MOTION":15.18971526,"ECCENTRICITY":0.00034688,"INCLINATION":97.4252,"RA_OF_ASC_NODE":144.1705,"ARG_OF_PERICENTER":20.3269,"MEAN_ANOMALY":339.8103,"EPHEMERIS_TYPE":0,"CLASSIFICATION_TYPE":"U","NORAD_CAT_ID":66696,"ELEMENT_SET_NO":999,"REV_AT_EPOCH":1535,"BSTAR":0.00057867113,"MEAN_MOTION_DOT":0.00012043,"MEAN_MOTION_DDOT":0},{"OBJECT_NAME":"SL-24 DEB","OBJECT_ID":"2008-040G","EPOCH":"2026-03-09T18:31:01.084512","MEAN_MOTION":15.22675803,"ECCENTRICITY":0.00142718,"INCLINATION":97.9814,"RA_OF_ASC_NODE":3.5579,"ARG_OF_PERICENTER":81.931,"MEAN_ANOMALY":278.3543,"EPHEMERIS_TYPE":0,"CLASSIFICATION_TYPE":"U","NORAD_CAT_ID":33318,"ELEMENT_SET_NO":999,"REV_AT_EPOCH":95458,"BSTAR":0.0007155905,"MEAN_MOTION_DOT":0.00016658,"MEAN_MOTION_DDOT":0}]
